NORAD_CAT_ID,OBJECT_NAME,OBJECT_TYPE,EPOCH,MEAN_MOTION,ECCENTRICITY,INCLINATION,RA_OF_ASC_NODE,ARG_OF_PERICENTER,MEAN_ANOMALY,BSTAR,MEAN_MOTION_DOT,MEAN_MOTION_DDOT,TLE_LINE0,TLE_LINE1,TLE_LINE2,SEMIMAJOR_AXIS,PERIOD,APOGEE,PERIGEE,DECAYED
53559.0,STARLINK-4508,PAYLOAD,2023-09-04 15:04:01,15.08848913,0.0001423,53.2177,220.9738,98.8895,261.2258,-0.00018922,-3.299e-05,0.0,0 STARLINK-4508,1 53559U 22101AJ  23247.62779446 -.00003299  00000-0 -18922-3 0  9996,2 53559  53.2177 220.9738 0001423  98.8895 261.2258 15.08848913 57861,6917.853,95.437,540.703,538.734,0.0
53559.0,STARLINK-4508,PAYLOAD,2023-09-05 08:33:15,15.08845467,0.0001333,53.2173,217.702,94.1909,265.9236,0.00012543,1.709e-05,0.0,0 STARLINK-4508,1 53559U 22101AJ  23248.35642991  .00001709  00000-0  12543-3 0  9996,2 53559  53.2173 217.7020 0001333  94.1909 265.9236 15.08845467 57970,6917.864,95.437,540.651,538.807,0.0
53559.0,STARLINK-4508,PAYLOAD,2023-09-06 06:48:40,15.08835231,0.0001228,53.2171,213.5376,84.4074,275.7058,9.3375e-05,1.198e-05,0.0,0 STARLINK-4508,1 53559U 22101AJ  23249.28379997  .00001198  00000-0  93375-4 0  9997,2 53559  53.2171 213.5376 0001228  84.4074 275.7058 15.08835231 58110,6917.895,95.438,540.609,538.91,0.0
53559.0,STARLINK-4508,PAYLOAD,2023-09-06 21:07:08,15.08840225,0.0001239,53.2171,210.8616,85.9992,274.1142,1.2319e-05,-9.2e-07,0.0,0 STARLINK-4508,1 53559U 22101AJ  23249.87996025 -.00000092  00000-0  12319-4 0  9991,2 53559  53.2171 210.8616 0001239  85.9992 274.1142 15.08840225 58200,6917.88,95.438,540.602,538.888,0.0
53559.0,STARLINK-4508,PAYLOAD,2023-09-07 06:39:26,15.08845367,0.0001511,53.2169,209.0772,96.666,263.4504,4.5069e-05,4.29e-06,0.0,0 STARLINK-4508,1 53559U 22101AJ  23250.27739550  .00000429  00000-0  45069-4 0  9996,2 53559  53.2169 209.0772 0001511  96.6660 263.4504 15.08845367 58265,6917.864,95.437,540.774,538.684,0.0
53559.0,STARLINK-4508,PAYLOAD,2023-09-07 20:57:55,15.08837806,0.0001719,53.2174,206.3987,97.2198,262.899,2.813e-06,-2.43e-06,0.0,0 STARLINK-4508,1 53559U 22101AJ  23250.87356230 -.00000243  00000-0  28130-5 0  9998,2 53559  53.2174 206.3987 0001719  97.2198 262.8990 15.08837806 58353,6917.887,95.438,540.941,538.563,0.0
53559.0,STARLINK-4508,PAYLOAD,2023-09-08 03:19:28,15.08838683,0.0001445,53.2176,205.2118,88.8224,271.2934,6.3194e-05,7.18e-06,0.0,0 STARLINK-4508,1 53559U 22101AJ  23251.13851965  .00000718  00000-0  63194-4 0  9997,2 53559  53.2176 205.2118 0001445  88.8224 271.2934 15.08838683 58391,6917.884,95.438,540.749,538.75,0.0
53559.0,STARLINK-4508,PAYLOAD,2023-09-08 20:48:42,15.08843733,0.0001482,53.2177,201.9412,89.7734,270.3428,4.0944e-05,3.64e-06,0.0,0 STARLINK-4508,1 53559U 22101AJ  23251.86715794  .00000364  00000-0  40944-4 0  9991,2 53559  53.2177 201.9412 0001482  89.7734 270.3428 15.08843733 58502,6917.869,95.437,540.759,538.709,0.0
53559.0,STARLINK-4508,PAYLOAD,2023-09-09 06:21:00,15.08848208,0.0001479,53.2176,200.1564,90.9069,269.2092,6.3176e-05,7.18e-06,0.0,0 STARLINK-4508,1 53559U 22101AJ  23252.26459316  .00000718  00000-0  63176-4 0  9996,2 53559  53.2176 200.1564 0001479  90.9069 269.2092 15.08848208 58563,6917.855,95.437,540.743,538.697,0.0
53559.0,STARLINK-4508,PAYLOAD,2023-09-10 01:25:39,15.08839739,0.0001474,53.2171,196.5864,90.8154,269.3007,3.0103e-05,1.91e-06,0.0,0 STARLINK-4508,1 53559U 22101AJ  23253.05948086  .00000191  00000-0  30103-4 0  9990,2 53559  53.2171 196.5864 0001474  90.8154 269.3007 15.08839739 58687,6917.881,95.438,540.766,538.726,0.0
53559.0,STARLINK-4508,PAYLOAD,2023-09-10 06:11:48,15.08839245,0.0001482,53.217,195.6954,88.3049,271.8113,3.5589e-05,2.78e-06,0.0,0 STARLINK-4508,1 53559U 22101AJ  23253.25820133  .00000278  00000-0  35589-4 0  9993,2 53559  53.2170 195.6954 0001482  88.3049 271.8113 15.08839245 58712,6917.883,95.438,540.773,538.722,0.0
53559.0,STARLINK-4508,PAYLOAD,2023-09-11 02:51:49,15.08842529,0.0001351,53.2179,191.8285,88.5606,271.5541,-2.799e-05,-7.33e-06,0.0,0 STARLINK-4508,1 53559U 22101AJ  23254.11932300 -.00000733  00000-0 -27990-4 0  9994,2 53559  53.2179 191.8285 0001351  88.5606 271.5541 15.08842529 58847,6917.873,95.437,540.672,538.803,0.0
53559.0,STARLINK-4508,PAYLOAD,2023-09-11 12:24:08,15.08841883,0.0001413,53.2183,190.0448,89.5561,270.5594,-2.684e-05,-7.15e-06,0.0,0 STARLINK-4508,1 53559U 22101AJ  23254.51676340 -.00000715  00000-0 -26840-4 0  9990,2 53559  53.2183 190.0448 0001413  89.5561 270.5594 15.08841883 58900,6917.875,95.437,540.717,538.762,0.0
53559.0,STARLINK-4508,PAYLOAD,2023-09-12 05:53:22,15.08840588,0.0001371,53.2181,186.7744,87.1141,273.0008,8.1843e-05,1.015e-05,0.0,0 STARLINK-4508,1 53559U 22101AJ  23255.24540325  .00001015  00000-0  81843-4 0  9990,2 53559  53.2181 186.7744 0001371  87.1141 273.0008 15.08840588 59012,6917.879,95.438,540.692,538.795,0.0
53559.0,STARLINK-4508,PAYLOAD,2023-09-13 05:44:09,15.08853235,0.0001258,53.2175,182.3151,95.4113,264.7022,0.00016968,2.415e-05,0.0,0 STARLINK-4508,1 53559U 22101AJ  23256.23899479  .00002415  00000-0  16968-3 0  9997,2 53559  53.2175 182.3151 0001258  95.4113 264.7022 15.08853235 59166,6917.84,95.437,540.575,538.835,0.0
53559.0,STARLINK-4508,PAYLOAD,2023-09-14 02:24:10,15.08843482,0.0001426,53.2183,178.4485,81.5651,278.5503,0.0001108,1.476e-05,0.0,0 STARLINK-4508,1 53559U 22101AJ  23257.10012273  .00001476  00000-0  11080-3 0  9999,2 53559  53.2183 178.4485 0001426  81.5651 278.5503 15.08843482 59295,6917.87,95.437,540.721,538.748,0.0
53559.0,STARLINK-4508,PAYLOAD,2023-09-14 03:59:33,15.08845692,0.0001377,53.2181,178.1511,89.7466,270.3684,0.00012731,1.739e-05,0.0,0 STARLINK-4508,1 53559U 22101AJ  23257.16636066  .00001739  00000-0  12731-3 0  9993,2 53559  53.2181 178.1511 0001377  89.7466 270.3684 15.08845692 59306,6917.863,95.437,540.681,538.775,0.0
53559.0,STARLINK-4508,PAYLOAD,2023-09-14 18:18:02,15.08834083,0.0001337,53.218,175.4752,108.6966,251.4172,3.34e-05,2.44e-06,0.0,0 STARLINK-4508,1 53559U 22101AJ  23257.76253103  .00000244  00000-0  33400-4 0  9993,2 53559  53.2180 175.4752 0001337 108.6966 251.4172 15.08834083 59397,6917.898,95.438,540.688,538.839,0.0
53559.0,STARLINK-4508,PAYLOAD,2023-09-15 03:50:21,15.0884547,0.0001279,53.2179,173.6915,86.8174,273.2965,-2.5971e-05,-7.01e-06,0.0,0 STARLINK-4508,1 53559U 22101AJ  23258.15996661 -.00000701  00000-0 -25971-4 0  9994,2 53559  53.2179 173.6915 0001279  86.8174 273.2965 15.08845470 59450,6917.864,95.437,540.613,538.844,0.0
53559.0,STARLINK-4508,PAYLOAD,2023-09-16 03:41:07,15.08850516,0.0001214,53.2173,169.2314,102.1613,257.9515,9.2894e-05,1.191e-05,0.0,0 STARLINK-4508,1 53559U 22101AJ  23259.15356121  .00001191  00000-0  92894-4 0  9996,2 53559  53.2173 169.2314 0001214 102.1613 257.9515 15.08850516 59601,6917.848,95.437,540.553,538.873,0.0
53559.0,STARLINK-4508,PAYLOAD,2023-09-16 17:59:36,15.0883854,0.000122,53.2179,166.5554,93.559,266.5542,8.5282e-05,1.07e-05,0.0,0 STARLINK-4508,1 53559U 22101AJ  23259.74973056  .00001070  00000-0  85282-4 0  9992,2 53559  53.2179 166.5554 0001220  93.5590 266.5542 15.08838540 59695,6917.885,95.438,540.594,538.906,0.0
53559.0,STARLINK-4508,PAYLOAD,2023-09-17 03:31:55,15.0884775,0.0001343,53.2169,164.7709,99.5234,260.591,0.00020483,2.974e-05,0.0,0 STARLINK-4508,1 53559U 22101AJ  23260.14716582  .00002974  00000-0  20483-3 0  9992,2 53559  53.2169 164.7709 0001343  99.5234 260.5910 15.08847750 59756,6917.857,95.437,540.651,538.793,0.0
53559.0,STARLINK-4508,PAYLOAD,2023-09-18 01:47:18,15.08850437,0.0001442,53.2169,160.6071,103.4767,256.6386,0.00012743,1.741e-05,0.0,0 STARLINK-4508,1 53559U 22101AJ  23261.07452280  .00001741  00000-0  12743-3 0  9998,2 53559  53.2169 160.6071 0001442 103.4767 256.6386 15.08850437 59893,6917.848,95.437,540.711,538.716,0.0
53559.0,STARLINK-4508,PAYLOAD,2023-09-18 20:51:57,15.08824403,0.0001769,53.2173,157.0374,108.8207,251.2978,0.00051991,7.993e-05,0.0,0 STARLINK-4508,1 53559U 22101AJ  23261.86941577  .00007993  00000-0  51991-3 0  9990,2 53559  53.2173 157.0374 0001769 108.8207 251.2978 15.08824403 60012,6917.928,95.439,541.017,538.569,0.0
53559.0,STARLINK-4508,PAYLOAD,2023-09-19 01:38:05,15.08849326,0.0001324,53.2169,156.1478,87.3309,272.7835,0.00017889,2.561e-05,0.0,0 STARLINK-4508,1 53559U 22101AJ  23262.06812336  .00002561  00000-0  17889-3 0  9997,2 53559  53.2169 156.1478 0001324  87.3309 272.7835 15.08849326 60047,6917.852,95.437,540.633,538.801,0.0
53559.0,STARLINK-4508,PAYLOAD,2023-09-20 03:04:14,15.08861911,0.0001358,53.2171,151.389,93.2819,266.8329,0.00034159,5.156e-05,0.0,0 STARLINK-4508,1 53559U 22101AJ  23263.12795093  .00005156  00000-0  34159-3 0  9997,2 53559  53.2171 151.3890 0001358  93.2819 266.8329 15.08861911 60208,6917.813,95.436,540.618,538.739,0.0
53559.0,STARLINK-4508,PAYLOAD,2023-09-20 22:08:54,15.08820469,0.0001352,53.2162,147.8186,95.6667,264.448,-0.00040486,-6.722e-05,0.0,0 STARLINK-4508,1 53559U 22101AJ  23263.92285222 -.00006722  00000-0 -40486-3 0  9995,2 53559  53.2162 147.8186 0001352  95.6667 264.4480 15.08820469 60325,6917.94,95.439,540.74,538.87,0.0
53559.0,STARLINK-4508,PAYLOAD,2023-09-21 01:19:41,15.08814602,0.0001337,53.216,147.2244,92.0786,268.0359,-0.00045405,-7.502e-05,0.0,0 STARLINK-4508,1 53559U 22101AJ  23264.05533670 -.00007502  00000-0 -45405-3 0  9996,2 53559  53.2160 147.2244 0001337  92.0786 268.0359 15.08814602 60347,6917.958,95.439,540.748,538.898,0.0
53559.0,STARLINK-4508,PAYLOAD,2023-09-21 21:59:42,15.08829997,0.0001651,53.2174,143.3652,73.2719,286.8454,-7.7414e-05,-1.52e-05,0.0,0 STARLINK-4508,1 53559U 22101AJ  23264.91646587 -.00001520  00000-0 -77414-4 0  9993,2 53559  53.2174 143.3652 0001651  73.2719 286.8454 15.08829997 60479,6917.911,95.438,540.918,538.634,0.0
53559.0,STARLINK-4508,PAYLOAD,2023-09-22 01:10:28,15.08833527,0.0001404,53.2159,142.7681,90.2885,269.8268,0.0002674,3.97e-05,0.0,0 STARLINK-4508,1 53559U 22101AJ  23265.04894613  .00003970  00000-0  26740-3 0  9997,2 53559  53.2159 142.7681 0001404  90.2885 269.8268 15.08833527 60496,6917.9,95.438,540.736,538.794,0.0
